ONEWEB-0273             
1 48991U 21060AA  23356.58294935  .00000000  00000+0 -33877-4 0  9996
2 48991  87.9070  49.4158 0001890 108.8071 251.3265 13.16595699120166
ONEWEB-0274             
1 48992U 21060AB  23356.22830133  .00000080  00000+0  17632-3 0  9991
2 48992  87.9075  49.4908 0001152 107.3895 252.7362 13.16592757120158
ONEWEB-0275             
1 48993U 21060AC  23356.59774671  .00000077  00000+0  16864-3 0  9998
2 48993  87.9066  49.4129 0001804 105.4466 254.6864 13.16598359120131
ONEWEB-0276             
1 48994U 21060AD  23356.55550932 -.00000038  00000+0 -13388-3 0  9994
2 48994  87.9074  49.4150 0001926 109.9159 250.2179 13.16592901120147
ONEWEB-0277             
1 48995U 21060AE  23356.56817214 -.00000051  00000+0 -16619-3 0  9990
2 48995  87.9071  49.4515 0001904 122.1659 237.9657 13.16592675120138
ONEWEB-0278             
1 48996U 21060AF  23356.55762504 -.00000052  00000+0 -16984-3 0  9997
2 48996  87.9072  49.4108 0002085  94.4672 265.6697 13.16593991120263
ONEWEB-0279             
1 48997U 21060AG  23356.56607421 -.00000032  00000+0 -11685-3 0  9996
2 48997  87.9072  49.4068 0001725  93.2864 266.8464 13.16593097120193
ONEWEB-0280             
1 48998U 21060AH  23356.58084389 -.00000016  00000+0 -76703-4 0  9996
2 48998  87.9073  49.4046 0001718 127.3922 232.7366 13.16593583120134
